[{"OBJECT_NAME":"SHIJIAN-6 02B (SJ-6 02B)","OBJECT_ID":"2006-046B","EPOCH":"2026-04-05T19:53:38.166144","MEAN_MOTION":15.01140708,"ECCENTRICITY":0.0012111,"INCLINATION":97.7104,"RA_OF_ASC_NODE":125.3555,"ARG_OF_PERICENTER":314.7609,"MEAN_ANOMALY":45.2629,"EPHEMERIS_TYPE":0,"CLASSIFICATION_TYPE":"U","NORAD_CAT_ID":29506,"ELEMENT_SET_NO":999,"REV_AT_EPOCH":5988,"BSTAR":0.00014214,"MEAN_MOTION_DOT":1.762e-5,"MEAN_MOTION_DDOT":0},{"OBJECT_NAME":"FGRST (GLAST)","OBJECT_ID":"2008-029A","EPOCH":"2026-04-05T20:46:28.305696","MEAN_MOTION":15.23556128,"ECCENTRICITY":0.0008039,"INCLINATION":25.584,"RA_OF_ASC_NODE":346.4934,"ARG_OF_PERICENTER":190.3046,"MEAN_ANOMALY":169.7328,"EPHEMERIS_TYPE":0,"CLASSIFICATION_TYPE":"U","NORAD_CAT_ID":33053,"ELEMENT_SET_NO":999,"REV_AT_EPOCH":98479,"BSTAR":0.00017074,"MEAN_MOTION_DOT":4.54e-5,"MEAN_MOTION_DDOT":0},{"OBJECT_NAME":"SDO","OBJECT_ID":"2010-005A","EPOCH":"2026-04-03T00:09:38.804832","MEAN_MOTION":1.00274249,"ECCENTRICITY":5.789e-5,"INCLINATION":34.4952,"RA_OF_ASC_NODE":87.4755,"ARG_OF_PERICENTER":22.7728,"MEAN_ANOMALY":341.7255,"EPHEMERIS_TYPE":0,"CLASSIFICATION_TYPE":"U","NORAD_CAT_ID":36395,"ELEMENT_SET_NO":999,"REV_AT_EPOCH":5931,"BSTAR":0,"MEAN_MOTION_DOT":-5.4e-7,"MEAN_MOTION_DDOT":0},{"OBJECT_NAME":"CRYOSAT 2","OBJECT_ID":"2010-013A","EPOCH":"2026-04-05T20:28:41.327904","MEAN_MOTION":14.51899121,"ECCENTRICITY":0.000246,"INCLINATION":92.0257,"RA_OF_ASC_NODE":259.7582,"ARG_OF_PERICENTER":96.9063,"MEAN_ANOMALY":263.2424,"EPHEMERIS_TYPE":0,"CLASSIFICATION_TYPE":"U","NORAD_CAT_ID":36508,"ELEMENT_SET_NO":999,"REV_AT_EPOCH":84758,"BSTAR":8.1967e-5,"MEAN_MOTION_DOT":3.33e-6,"MEAN_MOTION_DDOT":0},{"OBJECT_NAME":"X-SAT","OBJECT_ID":"2011-015C","EPOCH":"2026-04-05T21:55:14.143296","MEAN_MOTION":14.25184645,"ECCENTRICITY":0.0013576,"INCLINATION":98.3467,"RA_OF_ASC_NODE":76.4018,"ARG_OF_PERICENTER":190.6012,"MEAN_ANOMALY":169.4884,"EPHEMERIS_TYPE":0,"CLASSIFICATION_TYPE":"U","NORAD_CAT_ID":37389,"ELEMENT_SET_NO":999,"REV_AT_EPOCH":77738,"BSTAR":0.00010276,"MEAN_MOTION_DOT":2.0e-6,"MEAN_MOTION_DDOT":0},{"OBJECT_NAME":"GCOM-W1 (SHIZUKU)","OBJECT_ID":"2012-025A","EPOCH":"2026-04-05T20:41:41.595936","MEAN_MOTION":14.57140276,"ECCENTRICITY":0.0001107,"INCLINATION":98.2089,"RA_OF_ASC_NODE":37.5223,"ARG_OF_PERICENTER":75.7164,"MEAN_ANOMALY":351.202,"EPHEMERIS_TYPE":0,"CLASSIFICATION_TYPE":"U","NORAD_CAT_ID":38337,"ELEMENT_SET_NO":999,"REV_AT_EPOCH":73850,"BSTAR":0.00019645,"MEAN_MOTION_DOT":8.4e-6,"MEAN_MOTION_DDOT":0},{"OBJECT_NAME":"NUSTAR","OBJECT_ID":"2012-031A","EPOCH":"2026-04-05T22:00:03.000096","MEAN_MOTION":15.08102607,"ECCENTRICITY":0.0007044,"INCLINATION":6.0265,"RA_OF_ASC_NODE":215.9579,"ARG_OF_PERICENTER":119.7137,"MEAN_ANOMALY":277.2778,"EPHEMERIS_TYPE":0,"CLASSIFICATION_TYPE":"U","NORAD_CAT_ID":38358,"ELEMENT_SET_NO":999,"REV_AT_EPOCH":130,"BSTAR":0.001002,"MEAN_MOTION_DOT":0.00016821,"MEAN_MOTION_DDOT":0},{"OBJECT_NAME":"NEOSSAT","OBJECT_ID":"2013-009D","EPOCH":"2026-04-05T10:56:56.182848","MEAN_MOTION":14.3580034,"ECCENTRICITY":0.0012176,"INCLINATION":98.4161,"RA_OF_ASC_NODE":277.2219,"ARG_OF_PERICENTER":102.3724,"MEAN_ANOMALY":257.8825,"EPHEMERIS_TYPE":0,"CLASSIFICATION_TYPE":"U","NORAD_CAT_ID":39089,"ELEMENT_SET_NO":999,"REV_AT_EPOCH":68630,"BSTAR":9.8686e-5,"MEAN_MOTION_DOT":2.43e-6,"MEAN_MOTION_DDOT":0},{"OBJECT_NAME":"BRITE-AUSTRIA","OBJECT_ID":"2013-009F","EPOCH":"2026-04-05T18:28:07.139712","MEAN_MOTION":14.36512684,"ECCENTRICITY":0.0011399,"INCLINATION":98.3977,"RA_OF_ASC_NODE":277.0021,"ARG_OF_PERICENTER":96.1782,"MEAN_ANOMALY":264.0703,"EPHEMERIS_TYPE":0,"CLASSIFICATION_TYPE":"U","NORAD_CAT_ID":39091,"ELEMENT_SET_NO":999,"REV_AT_EPOCH":68665,"BSTAR":0.00011981,"MEAN_MOTION_DOT":3.09e-6,"MEAN_MOTION_DDOT":0},{"OBJECT_NAME":"IRIS","OBJECT_ID":"2013-033A","EPOCH":"2026-04-05T13:37:02.633376","MEAN_MOTION":14.85733932,"ECCENTRICITY":0.0024135,"INCLINATION":97.9379,"RA_OF_ASC_NODE":295.0569,"ARG_OF_PERICENTER":193.5128,"MEAN_ANOMALY":166.5444,"EPHEMERIS_TYPE":0,"CLASSIFICATION_TYPE":"U","NORAD_CAT_ID":39197,"ELEMENT_SET_NO":999,"REV_AT_EPOCH":68959,"BSTAR":0.00024211,"MEAN_MOTION_DOT":2.057e-5,"MEAN_MOTION_DDOT":0},{"OBJECT_NAME":"HISAKI (SPRINT-A)","OBJECT_ID":"2013-049A","EPOCH":"2026-04-05T17:34:01.517664","MEAN_MOTION":13.55534973,"ECCENTRICITY":0.0136426,"INCLINATION":29.7187,"RA_OF_ASC_NODE":228.3753,"ARG_OF_PERICENTER":149.4543,"MEAN_ANOMALY":211.4056,"EPHEMERIS_TYPE":0,"CLASSIFICATION_TYPE":"U","NORAD_CAT_ID":39253,"ELEMENT_SET_NO":999,"REV_AT_EPOCH":62158,"BSTAR":0.00014538,"MEAN_MOTION_DOT":1.73e-6,"MEAN_MOTION_DDOT":0},{"OBJECT_NAME":"CASSIOPE","OBJECT_ID":"2013-055A","EPOCH":"2026-04-05T19:26:46.724064","MEAN_MOTION":15.20827727,"ECCENTRICITY":0.0306575,"INCLINATION":80.9159,"RA_OF_ASC_NODE":154.2879,"ARG_OF_PERICENTER":305.4342,"MEAN_ANOMALY":51.8611,"EPHEMERIS_TYPE":0,"CLASSIFICATION_TYPE":"U","NORAD_CAT_ID":39265,"ELEMENT_SET_NO":999,"REV_AT_EPOCH":65665,"BSTAR":0.00039561,"MEAN_MOTION_DOT":0.00033419,"MEAN_MOTION_DDOT":-3.1923e-7},{"OBJECT_NAME":"STSAT-3","OBJECT_ID":"2013-066G","EPOCH":"2026-04-05T20:32:59.045280","MEAN_MOTION":15.02344979,"ECCENTRICITY":0.0008797,"INCLINATION":97.6172,"RA_OF_ASC_NODE":66.9739,"ARG_OF_PERICENTER":276.6175,"MEAN_ANOMALY":83.4048,"EPHEMERIS_TYPE":0,"CLASSIFICATION_TYPE":"U","NORAD_CAT_ID":39422,"ELEMENT_SET_NO":999,"REV_AT_EPOCH":67334,"BSTAR":0.00039891,"MEAN_MOTION_DOT":5.22e-5,"MEAN_MOTION_DDOT":0},{"OBJECT_NAME":"SWARM B","OBJECT_ID":"2013-067A","EPOCH":"2026-04-05T20:21:02.841984","MEAN_MOTION":15.28127394,"ECCENTRICITY":0.0002837,"INCLINATION":87.75,"RA_OF_ASC_NODE":4.2678,"ARG_OF_PERICENTER":77.772,"MEAN_ANOMALY":282.3847,"EPHEMERIS_TYPE":0,"CLASSIFICATION_TYPE":"U","NORAD_CAT_ID":39451,"ELEMENT_SET_NO":999,"REV_AT_EPOCH":67219,"BSTAR":0.00018074,"MEAN_MOTION_DOT":4.987e-5,"MEAN_MOTION_DDOT":0},{"OBJECT_NAME":"SWARM A","OBJECT_ID":"2013-067B","EPOCH":"2026-04-05T17:25:03.224928","MEAN_MOTION":15.49454183,"ECCENTRICITY":0.0003534,"INCLINATION":87.3291,"RA_OF_ASC_NODE":83.1294,"ARG_OF_PERICENTER":95.524,"MEAN_ANOMALY":264.6424,"EPHEMERIS_TYPE":0,"CLASSIFICATION_TYPE":"U","NORAD_CAT_ID":39452,"ELEMENT_SET_NO":999,"REV_AT_EPOCH":69502,"BSTAR":0.00026339,"MEAN_MOTION_DOT":0.00014518,"MEAN_MOTION_DDOT":0},{"OBJECT_NAME":"SWARM C","OBJECT_ID":"2013-067C","EPOCH":"2026-04-05T17:24:57.258144","MEAN_MOTION":15.49451534,"ECCENTRICITY":0.0003535,"INCLINATION":87.3292,"RA_OF_ASC_NODE":81.7102,"ARG_OF_PERICENTER":96.3604,"MEAN_ANOMALY":263.8059,"EPHEMERIS_TYPE":0,"CLASSIFICATION_TYPE":"U","NORAD_CAT_ID":39453,"ELEMENT_SET_NO":999,"REV_AT_EPOCH":69498,"BSTAR":0.00026046,"MEAN_MOTION_DOT":0.00014355,"MEAN_MOTION_DDOT":0},{"OBJECT_NAME":"BRITE-CA1 (TORONTO)","OBJECT_ID":"2014-033L","EPOCH":"2026-04-05T19:26:45.816000","MEAN_MOTION":14.72558091,"ECCENTRICITY":0.0079597,"INCLINATION":97.962,"RA_OF_ASC_NODE":226.1258,"ARG_OF_PERICENTER":147.8791,"MEAN_ANOMALY":212.7302,"EPHEMERIS_TYPE":0,"CLASSIFICATION_TYPE":"U","NORAD_CAT_ID":40020,"ELEMENT_SET_NO":999,"REV_AT_EPOCH":63156,"BSTAR":0.00032037,"MEAN_MOTION_DOT":2.088e-5,"MEAN_MOTION_DDOT":0}]
