SHIJIAN-6 02B (SJ-6 02B)
1 29506U 06046B   26095.82891396  .00001762  00000+0  14214-3 0  9996
2 29506  97.7104 125.3555 0012111 314.7609  45.2629 15.01140708 59889
FGRST (GLAST)           
1 33053U 08029A   26095.86560539  .00004540  00000+0  17074-3 0  9991
2 33053  25.5840 346.4934 0008039 190.3046 169.7328 15.23556128984797
SDO                     
1 36395U 10005A   26093.00669913 -.00000054  00000+0  00000+0 0  9994
2 36395  34.4952  87.4755 0000578  22.7728 341.7255  1.00274249 59313
CRYOSAT 2               
1 36508U 10013A   26095.85325611  .00000333  00000+0  81967-4 0  9993
2 36508  92.0257 259.7582 0002460  96.9063 263.2424 14.51899121847588
X-SAT                   
1 37389U 11015C   26095.91335814  .00000200  00000+0  10276-3 0  9994
2 37389  98.3467  76.4018 0013576 190.6012 169.4884 14.25184645777388
GCOM-W1 (SHIZUKU)       
1 38337U 12025A   26095.86228699  .00000840  00000+0  19645-3 0  9995
2 38337  98.2089  37.5223 0001107  75.7164 351.2020 14.57140276738506
NUSTAR                  
1 38358U 12031A   26095.91670139  .00016821  00000+0  10020-2 0  9994
2 38358   6.0265 215.9579 0007044 119.7137 277.2778 15.08102607  1304
NEOSSAT                 
1 39089U 13009D   26095.45620582  .00000243  00000+0  98686-4 0  9995
2 39089  98.4161 277.2219 0012176 102.3724 257.8825 14.35800340686304
BRITE-AUSTRIA           
1 39091U 13009F   26095.76952708  .00000309  00000+0  11981-3 0  9995
2 39091  98.3977 277.0021 0011399  96.1782 264.0703 14.36512684686655
IRIS                    
1 39197U 13033A   26095.56739159  .00002057  00000+0  24211-3 0  9992
2 39197  97.9379 295.0569 0024135 193.5128 166.5444 14.85733932689597
HISAKI (SPRINT-A)       
1 39253U 13049A   26095.73196201  .00000173  00000+0  14538-3 0  9994
2 39253  29.7187 228.3753 0136426 149.4543 211.4056 13.55534973621586
CASSIOPE                
1 39265U 13055A   26095.81026301  .00033419 -31923-6  39561-3 0  9994
2 39265  80.9159 154.2879 0306575 305.4342  51.8611 15.20827727656653
STSAT-3                 
1 39422U 13066G   26095.85623895  .00005220  00000+0  39891-3 0  9995
2 39422  97.6172  66.9739 0008797 276.6175  83.4048 15.02344979673343
SWARM B                 
1 39451U 13067A   26095.84794956  .00004987  00000+0  18074-3 0  9993
2 39451  87.7500   4.2678 0002837  77.7720 282.3847 15.28127394672199
SWARM A                 
1 39452U 13067B   26095.72573177  .00014518  00000+0  26339-3 0  9995
2 39452  87.3291  83.1294 0003534  95.5240 264.6424 15.49454183695026
SWARM C                 
1 39453U 13067C   26095.72566271  .00014355  00000+0  26046-3 0  9997
2 39453  87.3292  81.7102 0003535  96.3604 263.8059 15.49451534694980
BRITE-CA1 (TORONTO)     
1 40020U 14033L   26095.81025250  .00002088  00000+0  32037-3 0  9997
2 40020  97.9620 226.1258 0079597 147.8791 212.7302 14.72558091631561
